SENTINEL-6              
1 46984U 20086A   24236.14272707 -.00000058  00000+0  14013-4 0  9990
2 46984  66.0408  72.2036 0007760 269.5811  90.4315 12.80930997175529
